NORAD_CAT_ID,OBJECT_NAME,OBJECT_TYPE,EPOCH,MEAN_MOTION,ECCENTRICITY,INCLINATION,RA_OF_ASC_NODE,ARG_OF_PERICENTER,MEAN_ANOMALY,BSTAR,MEAN_MOTION_DOT,MEAN_MOTION_DDOT,TLE_LINE0,TLE_LINE1,TLE_LINE2,SEMIMAJOR_AXIS,PERIOD,APOGEE,PERIGEE,DECAYED
56810.0,STARLINK-6031,PAYLOAD,2023-09-25 12:00:00,15.33643658,0.0002831,69.9997,85.2881,262.9208,287.6107,-0.029847,-0.00894722,0.0,0 STARLINK-6031,1 56810U 23078AV  23268.50001157 -.00894722  00000-0 -29847-1 0  9995,2 56810  69.9997  85.2881 0002831 262.9208 287.6107 15.33643658 18673,6843.089,93.894,466.891,463.017,0.0
56810.0,STARLINK-6031,PAYLOAD,2023-09-25 14:00:01,15.33506357,0.0003128,69.9996,85.0661,263.7693,26.7525,-0.031628,-0.00939973,0.0,0 STARLINK-6031,1 56810U 23078AV  23268.58335648 -.00939973  00000-0 -31628-1 0  9996,2 56810  69.9996  85.0661 0003128 263.7693  26.7525 15.33506357  5387,6843.498,93.902,467.503,463.222,0.0
56810.0,STARLINK-6031,PAYLOAD,2023-09-25 22:00:00,15.32818099,0.0003326,69.9992,84.1795,271.6442,58.0731,-0.030395,-0.00888313,0.0,0 STARLINK-6031,1 56810U 23078AV  23268.91667824 -.00888313  00000-0 -30395-1 0  9998,2 56810  69.9992  84.1795 0003326 271.6442  58.0731 15.32818099  5432,6845.546,93.945,469.688,465.134,0.0
56810.0,STARLINK-6031,PAYLOAD,2023-09-26 04:00:00,15.32352321,0.0003288,69.9991,83.515,268.9774,359.6545,-0.033071,-0.00947056,0.0,0 STARLINK-6031,1 56810U 23078AV  23269.16667824 -.00947056  00000-0 -33071-1 0  9990,2 56810  69.9991  83.5150 0003288 268.9774 359.6545 15.32352321 18778,6846.933,93.973,471.049,466.547,0.0
56810.0,STARLINK-6031,PAYLOAD,2023-09-26 12:00:00,15.31699558,0.0003412,69.9993,82.6298,264.9036,41.5899,-0.032619,-0.00917769,0.0,0 STARLINK-6031,1 56810U 23078AV  23269.50001157 -.00917769  00000-0 -32619-1 0  9994,2 56810  69.9993  82.6298 0003412 264.9036  41.5899 15.31699558 18829,6848.878,94.013,473.08,468.406,0.0
56810.0,STARLINK-6031,PAYLOAD,2023-09-26 14:00:01,15.31552403,0.0003448,69.9993,82.4086,268.8281,137.0734,-0.034059,-0.00950844,0.0,0 STARLINK-6031,1 56810U 23078AV  23269.58335648 -.00950844  00000-0 -34059-1 0  9998,2 56810  69.9993  82.4086 0003448 268.8281 137.0734 15.31552403  5536,6849.317,94.022,473.544,468.82,0.0
56810.0,STARLINK-6031,PAYLOAD,2023-09-26 22:00:00,15.30856773,0.0003373,69.9989,81.5242,274.9598,167.7893,-0.032136,-0.00883564,0.0,0 STARLINK-6031,1 56810U 23078AV  23269.91667824 -.00883564  00000-0 -32136-1 0  9997,2 56810  69.9989  81.5242 0003373 274.9598 167.7893 15.30856773  5599,6851.392,94.065,475.568,470.946,0.0
56810.0,STARLINK-6031,PAYLOAD,2023-09-27 04:00:00,15.303907,0.0003375,69.9989,80.8616,271.4039,108.4979,-0.03482,-0.00938565,0.0,0 STARLINK-6031,1 56810U 23078AV  23270.16667824 -.00938565  00000-0 -34820-1 0  9990,2 56810  69.9989  80.8616 0003375 271.4039 108.4979 15.30390700 18921,6852.783,94.094,476.961,472.335,0.0
56810.0,STARLINK-6031,PAYLOAD,2023-09-27 14:00:01,15.29593263,0.0003252,69.9993,79.7584,269.4043,244.7703,-0.036093,-0.00960352,0.0,0 STARLINK-6031,1 56810U 23078AV  23270.58334491 -.00960352  00000-0 -36093-1 0  9990,2 56810  69.9993  79.7584 0003252 269.4043 244.7703 15.29593263  5699,6855.164,94.143,479.259,474.8,0.0
56810.0,STARLINK-6031,PAYLOAD,2023-09-27 20:00:01,15.29066054,0.000331,69.9991,79.0971,275.0151,175.159,-0.034371,-0.00893132,0.0,0 STARLINK-6031,1 56810U 23078AV  23270.83334491 -.00893132  00000-0 -34371-1 0  9996,2 56810  69.9991  79.0971 0003310 275.0151 175.1590 15.29066054 19024,6856.74,94.175,480.875,476.335,0.0
56810.0,STARLINK-6031,PAYLOAD,2023-09-28 12:00:00,15.27786944,0.0003203,69.9994,77.3359,267.986,249.3113,-0.03694,-0.00931945,0.0,0 STARLINK-6031,1 56810U 23078AV  23271.50001157 -.00931945  00000-0 -36940-1 0  9990,2 56810  69.9994  77.3359 0003203 267.9860 249.3113 15.27786944 19127,6860.567,94.254,484.629,480.234,0.0
56810.0,STARLINK-6031,PAYLOAD,2023-09-28 16:00:30,15.27460053,0.0003418,69.9994,76.8953,270.2797,85.23,-0.037975,-0.00947386,0.0,0 STARLINK-6031,1 56810U 23078AV  23271.66702546 -.00947386  00000-0 -37975-1 0  9992,2 56810  69.9994  76.8953 0003418 270.2797  85.2300 15.27460053  5877,6861.545,94.274,485.756,481.065,0.0
56810.0,STARLINK-6031,PAYLOAD,2023-09-28 22:00:01,15.26942144,0.0003398,69.9992,76.2369,273.1354,14.6137,-0.036227,-0.00882947,0.0,0 STARLINK-6031,1 56810U 23078AV  23271.91668981 -.00882947  00000-0 -36227-1 0  9994,2 56810  69.9992  76.2369 0003398 273.1354  14.6137 15.26942144  5901,6863.097,94.306,487.294,482.63,0.0
56810.0,STARLINK-6031,PAYLOAD,2023-09-29 12:00:00,15.25830669,0.0003274,69.9996,74.7008,265.8873,346.2504,-0.039185,-0.00931562,0.0,0 STARLINK-6031,1 56810U 23078AV  23272.50001157 -.00931562  00000-0 -39185-1 0  9990,2 56810  69.9996  74.7008 0003274 265.8873 346.2504 15.25830669 19280,6866.429,94.375,490.542,486.046,0.0
56810.0,STARLINK-6031,PAYLOAD,2023-09-29 14:00:01,15.25676664,0.0003402,69.9997,74.4816,268.844,80.8807,-0.040454,-0.00955416,0.0,0 STARLINK-6031,1 56810U 23078AV  23272.58334491 -.00955416  00000-0 -40454-1 0  9993,2 56810  69.9997  74.4816 0003402 268.8440  80.8807 15.25676664  6018,6866.891,94.384,491.092,486.42,0.0
56810.0,STARLINK-6031,PAYLOAD,2023-09-30 06:00:00,15.24320314,0.0003332,69.9996,72.7296,269.2412,139.4273,-0.038687,-0.00872037,0.0,0 STARLINK-6031,1 56810U 23078AV  23273.25001157 -.00872037  00000-0 -38687-1 0  9990,2 56810  69.9996  72.7296 0003332 269.2412 139.4273 15.24320314  6022,6870.964,94.468,495.119,490.54,0.0
56810.0,STARLINK-6031,PAYLOAD,2023-09-30 12:00:00,15.23876103,0.0003401,70.0,72.0737,267.0764,72.8612,-0.041777,-0.00936214,0.0,0 STARLINK-6031,1 56810U 23078AV  23273.50001157 -.00936214  00000-0 -41777-1 0  9990,2 56810  70.0000  72.0737 0003401 267.0764  72.8612 15.23876103 19434,6872.299,94.496,496.502,491.827,0.0
56810.0,STARLINK-6031,PAYLOAD,2023-10-01 12:00:00,15.21920107,0.0003315,70.0004,69.4547,268.9281,151.7696,-0.044466,-0.00939932,0.0,0 STARLINK-6031,1 56810U 23078AV  23274.50001157 -.00939932  00000-0 -44466-1 0  9999,2 56810  70.0004  69.4547 0003315 268.9281 151.7696 15.21920107 19582,6878.186,94.617,502.331,497.771,0.0
56810.0,STARLINK-6031,PAYLOAD,2023-10-01 14:00:01,15.21759482,0.0003183,70.0005,69.2368,269.482,247.6312,-0.045321,-0.00952451,0.0,0 STARLINK-6031,1 56810U 23078AV  23274.58334491 -.00952451  00000-0 -45321-1 0  9999,2 56810  70.0005  69.2368 0003183 269.4820 247.6312 15.21759482  5996,6878.67,94.627,502.725,498.346,0.0
56810.0,STARLINK-6031,PAYLOAD,2023-10-01 22:00:00,15.21076636,0.0003205,70.0003,68.3657,274.3242,267.9592,-0.04358,-0.0090146,0.0,0 STARLINK-6031,1 56810U 23078AV  23274.91667824 -.00901460  00000-0 -43580-1 0  9994,2 56810  70.0003  68.3657 0003205 274.3242 267.9592 15.21076636  6059,6880.729,94.67,504.799,500.389,0.0
56810.0,STARLINK-6031,PAYLOAD,2023-10-02 20:00:01,15.19274161,0.0003217,70.0008,65.975,274.6868,242.7559,-0.045266,-0.008892,0.0,0 STARLINK-6031,1 56810U 23078AV  23275.83334491 -.00889200  00000-0 -45266-1 0  9997,2 56810  70.0008  65.9750 0003217 274.6868 242.7559 15.19274161 19789,6886.17,94.782,510.25,505.82,0.0
56810.0,STARLINK-6031,PAYLOAD,2023-10-02 22:00:00,15.19124518,0.0003254,70.0005,65.758,272.7531,340.314,-0.046592,-0.00909722,0.0,0 STARLINK-6031,1 56810U 23078AV  23275.91667824 -.00909722  00000-0 -46592-1 0  9990,2 56810  70.0005  65.7580 0003254 272.7531 340.3140 15.19124518  5643,6886.622,94.791,510.728,506.246,0.0
56810.0,STARLINK-6031,PAYLOAD,2023-10-03 14:00:01,15.17843334,0.0003341,70.0009,64.024,268.2604,28.078,-0.050625,-0.00949336,0.0,0 STARLINK-6031,1 56810U 23078AV  23276.58334491 -.00949336  00000-0 -50625-1 0  9992,2 56810  70.0009  64.0240 0003341 268.2604  28.0780 15.17843334 19906,6890.497,94.871,514.664,510.06,0.0
56810.0,STARLINK-6031,PAYLOAD,2023-10-03 22:00:00,15.17171365,0.0003367,70.0006,63.1581,273.3215,43.4886,-0.049631,-0.0091547,0.0,0 STARLINK-6031,1 56810U 23078AV  23276.91667824 -.00915470  00000-0 -49631-1 0  9995,2 56810  70.0006  63.1581 0003367 273.3215  43.4886 15.17171365  5804,6892.531,94.913,516.717,512.076,0.0
56810.0,STARLINK-6031,PAYLOAD,2023-10-04 12:00:00,15.16052014,0.0003269,70.001,61.6452,267.1483,353.5852,-0.053126,-0.00946514,0.0,0 STARLINK-6031,1 56810U 23078AV  23277.50001157 -.00946514  00000-0 -53126-1 0  9999,2 56810  70.0010  61.6452 0003269 267.1483 353.5852 15.16052014 20047,6895.924,94.984,520.043,515.534,0.0
56810.0,STARLINK-6031,PAYLOAD,2023-10-04 14:00:01,15.15885998,0.0003387,70.0009,61.4293,269.9728,85.4174,-0.053559,-0.00949502,0.0,0 STARLINK-6031,1 56810U 23078AV  23277.58334491 -.00949502  00000-0 -53559-1 0  9997,2 56810  70.0009  61.4293 0003387 269.9728  85.4174 15.15885998  5910,6896.427,94.994,520.628,515.956,0.0
56810.0,STARLINK-6031,PAYLOAD,2023-10-04 22:00:01,15.152168,0.0003379,70.0006,60.566,275.0375,98.5392,-0.052709,-0.00919144,0.0,0 STARLINK-6031,1 56810U 23078AV  23277.91668981 -.00919144  00000-0 -52709-1 0  9993,2 56810  70.0006  60.5660 0003379 275.0375  98.5392 15.15216800  5964,6898.457,95.036,522.653,517.991,0.0
56810.0,STARLINK-6031,PAYLOAD,2023-10-05 14:00:01,15.13927209,0.0003344,70.0009,58.8423,271.5618,135.8394,-0.056535,-0.00948161,0.0,0 STARLINK-6031,1 56810U 23078AV  23278.58334491 -.00948161  00000-0 -56535-1 0  9995,2 56810  70.0009  58.8423 0003344 271.5618 135.8394 15.13927209  6077,6902.374,95.117,526.548,521.931,0.0
56810.0,STARLINK-6031,PAYLOAD,2023-10-05 20:00:01,15.13407595,0.0003339,70.0007,58.197,274.1572,55.1556,-0.053806,-0.00893408,0.0,0 STARLINK-6031,1 56810U 23078AV  23278.83334491 -.00893408  00000-0 -53806-1 0  9994,2 56810  70.0007  58.1970 0003339 274.1572  55.1556 15.13407595 20247,6903.954,95.15,528.124,523.514,0.0
56810.0,STARLINK-6031,PAYLOAD,2023-10-05 22:00:00,15.1326167,0.0003298,70.0005,57.9822,276.2232,146.9532,-0.05591,-0.00922274,0.0,0 STARLINK-6031,1 56810U 23078AV  23278.91667824 -.00922274  00000-0 -55910-1 0  9994,2 56810  70.0005  57.9822 0003298 276.2232 146.9532 15.13261670  6124,6904.398,95.159,528.54,523.986,0.0
